[{"OBJECT_NAME":"JILIN-1 GAOFEN 3D31","OBJECT_ID":"2022-048F","EPOCH":"2026-03-09T22:43:25.074336","MEAN_MOTION":15.6100761,"ECCENTRICITY":0.00020948,"INCLINATION":97.5608,"RA_OF_ASC_NODE":176.1853,"ARG_OF_PERICENTER":115.2158,"MEAN_ANOMALY":244.9316,"EPHEMERIS_TYPE":0,"CLASSIFICATION_TYPE":"U","NORAD_CAT_ID":52448,"ELEMENT_SET_NO":999,"REV_AT_EPOCH":21401,"BSTAR":0.0010031145,"MEAN_MOTION_DOT":0.00084827,"MEAN_MOTION_DDOT":0},{"OBJECT_NAME":"STARLINK-36365","OBJECT_ID":"2026-022U","EPOCH":"2026-03-09T22:00:01.999584","MEAN_MOTION":15.72590104,"ECCENTRICITY":0.00017297,"INCLINATION":97.2853,"RA_OF_ASC_NODE":102.9404,"ARG_OF_PERICENTER":72.788,"MEAN_ANOMALY":45.9093,"EPHEMERIS_TYPE":0,"CLASSIFICATION_TYPE":"U","NORAD_CAT_ID":67666,"ELEMENT_SET_NO":999,"REV_AT_EPOCH":608,"BSTAR":-0.016261278,"MEAN_MOTION_DOT":-0.01889886,"MEAN_MOTION_DDOT":0}]
